NORAD_CAT_ID,OBJECT_NAME,OBJECT_TYPE,EPOCH,MEAN_MOTION,ECCENTRICITY,INCLINATION,RA_OF_ASC_NODE,ARG_OF_PERICENTER,MEAN_ANOMALY,BSTAR,MEAN_MOTION_DOT,MEAN_MOTION_DDOT,TLE_LINE0,TLE_LINE1,TLE_LINE2,SEMIMAJOR_AXIS,PERIOD,APOGEE,PERIGEE,DECAYED
53008.0,STARLINK-4275,PAYLOAD,2022-08-10 14:00:01,15.73222213,0.0002247,53.2171,211.1317,9.7112,97.485,-0.00019737,-0.00028258,0.0,0 STARLINK-4275,1 53008U 22076Y   22222.58334491 -.00028258  00000-0 -19737-3 0  9997,2 53008  53.2171 211.1317 0002247   9.7112  97.4850 15.73222213  5857,6727.831999999999,91.532,351.209,348.185,0.0
53008.0,STARLINK-4275,PAYLOAD,2022-08-10 20:00:01,15.73147553,0.0002306,53.2179,209.9079,13.1252,70.7249,0.00064727,0.0009101,0.0,0 STARLINK-4275,1 53008U 22076Y   22222.83334491  .00091010  00000-0  64727-3 0  9998,2 53008  53.2179 209.9079 0002306  13.1252  70.7249 15.73147553  5898,6728.045,91.536,351.461,348.358,0.0
53008.0,STARLINK-4275,PAYLOAD,2022-08-10 22:00:00,15.7316739,0.0002285,53.218,209.4955,14.5858,181.482,0.00055589,0.00078018,0.0,0 STARLINK-4275,1 53008U 22076Y   22222.91667824  .00078018  00000-0  55589-3 0  9995,2 53008  53.2180 209.4955 0002285  14.5858 181.4820 15.73167390  1309,6727.988,91.535,351.39,348.316,0.0
53008.0,STARLINK-4275,PAYLOAD,2022-08-11 04:00:00,15.73210545,0.0002463,53.2179,208.26,14.394,158.3508,0.00010314,0.00013885,0.0,0 STARLINK-4275,1 53008U 22076Y   22223.16667824  .00013885  00000-0  10314-3 0  9991,2 53008  53.2179 208.2600 0002463  14.3940 158.3508 15.73210545  5940,6727.865,91.533,351.38699999999994,348.0730000000001,0.0
53008.0,STARLINK-4275,PAYLOAD,2022-08-11 14:00:01,15.73267599,0.0002484,53.2177,206.1981,12.5351,1.3911,-0.0001546,-0.00022328,0.0,0 STARLINK-4275,1 53008U 22076Y   22223.58334491 -.00022328  00000-0 -15460-3 0  9999,2 53008  53.2177 206.1981 0002484  12.5351   1.3911 15.73267599  1308,6727.7019999999975,91.529,351.23900000000015,347.896,0.0
53008.0,STARLINK-4275,PAYLOAD,2022-08-12 04:00:00,15.73205031,0.0002496,53.2174,203.2937,13.9714,65.6728,-8.1686e-06,-1.769e-05,0.0,0 STARLINK-4275,1 53008U 22076Y   22224.16667824 -.00001769  00000-0 -81686-5 0  9994,2 53008  53.2174 203.2937 0002496  13.9714  65.6728 15.73205031  6100,6727.880999999999,91.533,351.425,348.06699999999995,0.0
53008.0,STARLINK-4275,PAYLOAD,2022-08-12 12:00:00,15.73253038,0.0002604,53.2182,201.6622,19.4366,149.1848,-0.00040989,-0.00057894,0.0,0 STARLINK-4275,1 53008U 22076Y   22224.50001157 -.00057894  00000-0 -40989-3 0  9992,2 53008  53.2182 201.6622 0002604  19.4366 149.1848 15.73253038  6153,6727.744000000002,91.53,351.361,347.857,0.0
53008.0,STARLINK-4275,PAYLOAD,2022-08-12 14:00:01,15.7324916,0.0002546,53.2183,201.2492,20.7593,260.1066,-0.00044731,-0.00063073,0.0,0 STARLINK-4275,1 53008U 22076Y   22224.58334491 -.00063073  00000-0 -44731-3 0  9995,2 53008  53.2183 201.2492 0002546  20.7593 260.1066 15.73249160  1306,6727.755,91.53,351.333,347.907,0.0
53008.0,STARLINK-4275,PAYLOAD,2022-08-12 22:00:01,15.73224,0.0002372,53.2183,199.5983,24.3277,345.5401,-1.9068e-06,-8.900000000000001e-06,0.0,0 STARLINK-4275,1 53008U 22076Y   22224.91668981 -.00000890  00000-0 -19068-5 0  9991,2 53008  53.2183 199.5983 0002372  24.3277 345.5401 15.73224000  1303,6727.8269999999975,91.532,351.288,348.096,0.0
53008.0,STARLINK-4275,PAYLOAD,2022-08-13 04:00:00,15.73248006,0.0002621,53.2183,198.3573,19.8396,326.6723,-0.0010301,-0.00143083,0.0,0 STARLINK-4275,1 53008U 22076Y   22225.16667824 -.00143083  00000-0 -10301-2 0  9994,2 53008  53.2183 198.3573 0002621  19.8396 326.6723 15.73248006  6262,6727.7580000000025,91.53,351.38699999999994,347.86,0.0
53008.0,STARLINK-4275,PAYLOAD,2022-08-13 14:00:01,15.73111394,0.0002244,53.2173,196.289,23.5674,164.0861,-0.0054564999999999,-0.00703043,0.0,0 STARLINK-4275,1 53008U 22076Y   22225.58334491 -.00703043  00000-0 -54565-2 0  9999,2 53008  53.2173 196.2890 0002244  23.5674 164.0861 15.73111394  1308,6728.148,91.538,351.523,348.50300000000016,0.0
53008.0,STARLINK-4275,PAYLOAD,2022-08-13 22:00:00,15.72615465,0.0002054,53.2174,194.6375,22.5334,253.6533,-0.0085519,-0.01053633,0.0,0 STARLINK-4275,1 53008U 22076Y   22225.91667824 -.01053633  00000-0 -85519-2 0  9992,2 53008  53.2174 194.6375 0002054  22.5334 253.6533 15.72615465  1308,6729.562,91.567,352.809,350.045,0.0
53008.0,STARLINK-4275,PAYLOAD,2022-08-14 12:00:00,15.71287551,0.0002460999999999,53.2173,191.7627,12.8253,326.3389,-0.0090689,-0.01055655,0.0,0 STARLINK-4275,1 53008U 22076Y   22226.50001157 -.01055655  00000-0 -90689-2 0  9999,2 53008  53.2173 191.7627 0002461  12.8253 326.3389 15.71287551  6479,6733.353,91.645,356.875,353.561,0.0
53008.0,STARLINK-4275,PAYLOAD,2022-08-14 14:00:01,15.71098907,0.0002294,53.2175,191.3516,9.4241,81.366,-0.0091622,-0.01057701,0.0,0 STARLINK-4275,1 53008U 22076Y   22226.58334491 -.01057701  00000-0 -91622-2 0  9999,2 53008  53.2175 191.3516 0002294   9.4241  81.3660 15.71098907  1309,6733.892,91.656,357.302,354.212,0.0
53008.0,STARLINK-4275,PAYLOAD,2022-08-14 22:00:00,15.70337154,0.0002612,53.2178,189.7102,6.0674,170.6568,-0.0094147,-0.01053082,0.0,0 STARLINK-4275,1 53008U 22076Y   22226.91667824 -.01053082  00000-0 -94147-2 0  9998,2 53008  53.2178 189.7102 0002612   6.0674 170.6568 15.70337154  1309,6736.07,91.7,359.694,356.175,0.0
53008.0,STARLINK-4275,PAYLOAD,2022-08-15 12:00:00,15.69004356,4.53e-05,53.2172,186.845,16.8879,218.0255,-0.0099152,-0.01048483,0.0,0 STARLINK-4275,1 53008U 22076Y   22227.50001157 -.01048483  00000-0 -99152-2 0  9995,2 53008  53.2172 186.8450 0000453  16.8879 218.0255 15.69004356  6638,6739.884,91.778,362.054,361.443,0.0
53008.0,STARLINK-4275,PAYLOAD,2022-08-15 14:00:01,15.68814795,5.44e-05,53.2174,186.4352,48.6809,297.1735,-0.0099802,-0.01047242,0.0,0 STARLINK-4275,1 53008U 22076Y   22227.58334491 -.01047242  00000-0 -99802-2 0  9997,2 53008  53.2174 186.4352 0000544  48.6809 297.1735 15.68814795  1309,6740.427,91.789,362.658,361.925,0.0
53008.0,STARLINK-4275,PAYLOAD,2022-08-15 22:00:00,15.68056688,0.0001199999999999,53.2175,184.7994,58.3418,10.7071,-0.010318,-0.0104925,0.0,0 STARLINK-4275,1 53008U 22076Y   22227.91667824 -.01049250  00000-0 -10318-1 0  9998,2 53008  53.2175 184.7994 0001200  58.3418  10.7071 15.68056688  1308,6742.599,91.833,365.273,363.655,0.0
53008.0,STARLINK-4275,PAYLOAD,2022-08-16 06:00:02,15.67297375,0.0001325,53.2176,183.1683,62.0666,89.3287,-0.010642,-0.01048998,0.0,0 STARLINK-4275,1 53008U 22076Y   22228.25002315 -.01048998  00000-0 -10642-1 0  9992,2 53008  53.2176 183.1683 0001325  62.0666  89.3287 15.67297375  6745,6744.776999999999,91.878,367.535,365.74800000000016,0.0
53008.0,STARLINK-4275,PAYLOAD,2022-08-16 14:00:01,15.66541287,0.0001165,53.2176,181.5354,85.3731,147.3269,-0.0110459999999999,-0.01054956,0.0,0 STARLINK-4275,1 53008U 22076Y   22228.58334491 -.01054956  00000-0 -11046-1 0  9991,2 53008  53.2176 181.5354 0001165  85.3731 147.3269 15.66541287  1300,6746.946999999999,91.922,369.598,368.026,0.0
53008.0,STARLINK-4275,PAYLOAD,2022-08-16 20:00:01,15.65969108,0.0001235,53.2176,180.3123,78.5324,124.5971,-0.011247,-0.01050049,0.0,0 STARLINK-4275,1 53008U 22076Y   22228.83334491 -.01050049  00000-0 -11247-1 0  9991,2 53008  53.2176 180.3123 0001235  78.5324 124.5971 15.65969108  6847,6748.59,91.956,371.289,369.622,0.0
53008.0,STARLINK-4275,PAYLOAD,2022-08-16 22:00:00,15.65779635,0.0001081,53.2178,179.9055,80.8213,232.3365,-0.011336,-0.01050193,0.0,0 STARLINK-4275,1 53008U 22076Y   22228.91667824 -.01050193  00000-0 -11336-1 0  9998,2 53008  53.2178 179.9055 0001081  80.8213 232.3365 15.65779635  1304,6749.134,91.967,371.729,370.27,0.0
53008.0,STARLINK-4275,PAYLOAD,2022-08-17 12:00:00,15.64450506,0.000106,53.2173,177.0586,62.0911,299.6709,-0.011964,-0.01050601,0.0,0 STARLINK-4275,1 53008U 22076Y   22229.50001157 -.01050601  00000-0 -11964-1 0  9996,2 53008  53.2173 177.0586 0001060  62.0911 299.6709 15.64450506  6946,6752.956999999999,92.045,375.537,374.106,0.0
53008.0,STARLINK-4275,PAYLOAD,2022-08-17 14:00:01,15.64259656,0.0001204,53.2175,176.6522,63.3612,47.9737,-0.012033,-0.01048878,0.0,0 STARLINK-4275,1 53008U 22076Y   22229.58334491 -.01048878  00000-0 -12033-1 0  9995,2 53008  53.2175 176.6522 0001204  63.3612  47.9737 15.64259656  1308,6753.505999999999,92.056,376.184,374.5580000000001,0.0
53008.0,STARLINK-4275,PAYLOAD,2022-08-18 06:00:02,15.62739967,0.0001182,53.2175,173.4078,95.9735,169.9513,-0.012754,-0.01063126,0.0,0 STARLINK-4275,1 53008U 22076Y   22230.25002315 -.01063126  00000-0 -12754-1 0  9991,2 53008  53.2175 173.4078 0001182  95.9735 169.9513 15.62739967  7063,6757.8830000000025,92.146,380.547,378.95,0.0
53008.0,STARLINK-4275,PAYLOAD,2022-08-18 14:00:01,15.61981663,0.0001008,53.2176,171.7857,82.20200000000001,259.5527,-0.013175,-0.01065698,0.0,0 STARLINK-4275,1 53008U 22076Y   22230.58334491 -.01065698  00000-0 -13175-1 0  9994,2 53008  53.2176 171.7857 0001008  82.2020 259.5527 15.61981663  1306,6760.07,92.191,382.617,381.254,0.0
53008.0,STARLINK-4275,PAYLOAD,2022-08-18 22:00:00,15.61222213,0.0001082999999999,53.2176,170.1672,76.9227,339.8128,-0.013559,-0.01064841,0.0,0 STARLINK-4275,1 53008U 22076Y   22230.91667824 -.01064841  00000-0 -13559-1 0  9995,2 53008  53.2176 170.1672 0001083  76.9227 339.8128 15.61222213  7164,6762.263000000001,92.235,384.86,383.395,0.0
53008.0,STARLINK-4275,PAYLOAD,2022-08-19 14:00:01,15.59702449,0.0001244,53.2177,166.9357,73.1839,130.7767,-0.0143539999999999,-0.01063165,0.0,0 STARLINK-4275,1 53008U 22076Y   22231.58334491 -.01063165  00000-0 -14354-1 0  9992,2 53008  53.2177 166.9357 0001244  73.1839 130.7767 15.59702449  1303,6766.655,92.325,389.361,387.67800000000005,0.0
53008.0,STARLINK-4275,PAYLOAD,2022-08-19 20:00:01,15.59132372,0.0001268,53.2178,165.7256,79.9263,88.3021,-0.0146439999999999,-0.0106138,0.0,0 STARLINK-4275,1 53008U 22076Y   22231.83334491 -.01061380  00000-0 -14644-1 0  9999,2 53008  53.2178 165.7256 0001268  79.9263  88.3021 15.59132372  7309,6768.304,92.359,391.027,389.311,0.0
